EUTELSAT QUANTUM        
1 49056U 21069B   25299.93933552  .00000137  00000+0  00000+0 0  9997
2 49056   0.0546  68.4164 0002540 161.5566 191.4801  1.00272373 15589
EUTELSAT KONNECT VHTS   
1 53765U 22110A   25299.90281873  .00000029  00000+0  00000+0 0  9996
2 53765   0.0551  92.1427 0002759  92.3118 178.8137  1.00273124  4482
EUTELSAT HOTBIRD 13F    
1 54048U 22134A   25299.83348505  .00000099  00000+0  00000+0 0  9992
2 54048   0.0544 283.9159 0002000  86.3003 338.3294  1.00273222 11031
EUTELSAT HOTBIRD 13G    
1 54225U 22146A   25299.83348505  .00000099  00000+0  00000+0 0  9992
2 54225   0.0466 238.1969 0002094 290.6077 179.7137  1.00273063  5125
EUTELSAT 10B            
1 54259U 22157A   25299.83287837  .00000080  00000+0  00000+0 0  9991
2 54259   0.0570  89.2218 0001268  37.2877 218.8189  1.00266019 10687
EUTELSAT 36D            
1 59346U 24059A   25299.90940543  .00000167  00000+0  00000+0 0  9990
2 59346   0.0160 248.5434 0000308 167.6416 342.5982  1.00270677  5804
